SL-14 R/B               
1 16792U 86046B   25328.66191545  .00000515  00000+0  56665-4 0  9998
2 16792  82.4818 179.3864 0022267 212.1211 147.8650 14.85457690110816
SL-14 R/B               
1 16882U 86055B   25328.79575494  .00000678  00000+0  75586-4 0  9994
2 16882  82.5219 225.2314 0018052 323.5256  99.2395 14.85504367103795
AJISAI (EGS)            
1 16908U 86061A   25328.85363972 -.00000091  00000+0  49020-4 0  9997
2 16908  50.0107  55.7145 0011234  20.9872 133.8265 12.44514111454943
COSMOS 1812             
1 17295U 87003A   25328.98634312  .00092614  00000+0  71442-3 0  9990
2 17295  82.4879 311.1761 0006575 110.5499 249.6469 15.71614142127862
SL-14 R/B               
1 17567U 87024B   25328.86808760  .00000565  00000+0  61807-4 0  9991
2 17567  82.5288 191.2419 0016828 246.3082 113.6369 14.85998831 72563
COSMOS 1833             
1 17589U 87027A   25328.87838927 -.00000077  00000+0 -15283-4 0  9994
2 17589  70.9127 186.3247 0021773 356.9157   3.1826 14.13017951995505
SL-16 R/B               
1 17590U 87027B   25328.87381777  .00000222  00000+0  13404-3 0  9994
2 17590  71.0002 137.3641 0007272 278.0340  81.9958 14.17148200   492
SL-14 R/B               
1 17912U 87038B   25328.67449615  .00000581  00000+0  64699-4 0  9999
2 17912  82.5032  35.7141 0020150 148.0802 212.1640 14.85236289 63647
COSMOS 1844             
1 17973U 87041A   25328.81228420  .00000034  00000+0  42900-4 0  9999
2 17973  70.8995 255.3812 0030885 184.8786 175.2040 14.14528304988757
SL-14 R/B               
1 18153U 87055B   25328.80428112  .00000670  00000+0  74650-4 0  9997
2 18153  82.4989  87.8895 0020741   4.6026 355.5376 14.85492991 54361
COSMOS 1867             
1 18187U 87060A   25328.99752026 -.00000013  00000+0  32707-4 0  9993
2 18187  65.0102 239.8864 0013635 269.2668  90.6854 14.31482047  4952
COSMOS 1892             
1 18421U 87088A   25329.23146236  .00859773  44460-3  75267-3 0  9995
2 18421  82.4632  63.4200 0005564 269.7044  90.3603 16.13202004 88512
