CCSDS_OMM_VERS = 2.0
CREATION_DATE  = 
ORIGINATOR     = 

OBJECT_NAME    = SL-14 R/B
OBJECT_ID      = 1986-046B
CENTER_NAME    = EARTH
REF_FRAME      = TEME
TIME_SYSTEM    = UTC
MEAN_ELEMENT_THEORY = SGP/SGP4

EPOCH          = 2025-11-24T15:53:09.494880
MEAN_MOTION    = 14.85457690
ECCENTRICITY   = .00222679
INCLINATION    = 82.4818
RA_OF_ASC_NODE = 179.3864
ARG_OF_PERICENTER = 212.1211
MEAN_ANOMALY   = 147.8650

EPHEMERIS_TYPE = 0
CLASSIFICATION_TYPE = U
NORAD_CAT_ID   = 16792
ELEMENT_SET_NO = 999
REV_AT_EPOCH   = 11081
BSTAR          = .56664609E-4
MEAN_MOTION_DOT = .515E-5
MEAN_MOTION_DDOT = 0

CCSDS_OMM_VERS = 2.0
CREATION_DATE  = 
ORIGINATOR     = 

OBJECT_NAME    = SL-14 R/B
OBJECT_ID      = 1986-055B
CENTER_NAME    = EARTH
REF_FRAME      = TEME
TIME_SYSTEM    = UTC
MEAN_ELEMENT_THEORY = SGP/SGP4

EPOCH          = 2025-11-24T19:05:53.226816
MEAN_MOTION    = 14.85504367
ECCENTRICITY   = .00180529
INCLINATION    = 82.5219
RA_OF_ASC_NODE = 225.2314
ARG_OF_PERICENTER = 323.5256
MEAN_ANOMALY   = 99.2395

EPHEMERIS_TYPE = 0
CLASSIFICATION_TYPE = U
NORAD_CAT_ID   = 16882
ELEMENT_SET_NO = 999
REV_AT_EPOCH   = 10379
BSTAR          = .75586281E-4
MEAN_MOTION_DOT = .678E-5
MEAN_MOTION_DDOT = 0

CCSDS_OMM_VERS = 2.0
CREATION_DATE  = 
ORIGINATOR     = 

OBJECT_NAME    = AJISAI (EGS)
OBJECT_ID      = 1986-061A
CENTER_NAME    = EARTH
REF_FRAME      = TEME
TIME_SYSTEM    = UTC
MEAN_ELEMENT_THEORY = SGP/SGP4

EPOCH          = 2025-11-24T20:29:14.471808
MEAN_MOTION    = 12.44514111
ECCENTRICITY   = .00112344
INCLINATION    = 50.0107
RA_OF_ASC_NODE = 55.7145
ARG_OF_PERICENTER = 20.9872
MEAN_ANOMALY   = 133.8265

EPHEMERIS_TYPE = 0
CLASSIFICATION_TYPE = U
NORAD_CAT_ID   = 16908
ELEMENT_SET_NO = 999
REV_AT_EPOCH   = 45494
BSTAR          = .49019909E-4
MEAN_MOTION_DOT = -.91E-6
MEAN_MOTION_DDOT = 0

CCSDS_OMM_VERS = 2.0
CREATION_DATE  = 
ORIGINATOR     = 

OBJECT_NAME    = COSMOS 1812
OBJECT_ID      = 1987-003A
CENTER_NAME    = EARTH
REF_FRAME      = TEME
TIME_SYSTEM    = UTC
MEAN_ELEMENT_THEORY = SGP/SGP4

EPOCH          = 2025-11-24T23:40:20.045568
MEAN_MOTION    = 15.71614142
ECCENTRICITY   = .0006575
INCLINATION    = 82.4879
RA_OF_ASC_NODE = 311.1761
ARG_OF_PERICENTER = 110.5499
MEAN_ANOMALY   = 249.6469

EPHEMERIS_TYPE = 0
CLASSIFICATION_TYPE = U
NORAD_CAT_ID   = 17295
ELEMENT_SET_NO = 999
REV_AT_EPOCH   = 12786
BSTAR          = .71442E-3
MEAN_MOTION_DOT = .92614E-3
MEAN_MOTION_DDOT = 0

CCSDS_OMM_VERS = 2.0
CREATION_DATE  = 
ORIGINATOR     = 

OBJECT_NAME    = SL-14 R/B
OBJECT_ID      = 1987-024B
CENTER_NAME    = EARTH
REF_FRAME      = TEME
TIME_SYSTEM    = UTC
MEAN_ELEMENT_THEORY = SGP/SGP4

EPOCH          = 2025-11-24T20:50:02.768640
MEAN_MOTION    = 14.85998831
ECCENTRICITY   = .00168289
INCLINATION    = 82.5288
RA_OF_ASC_NODE = 191.2419
ARG_OF_PERICENTER = 246.3082
MEAN_ANOMALY   = 113.6369

EPHEMERIS_TYPE = 0
CLASSIFICATION_TYPE = U
NORAD_CAT_ID   = 17567
ELEMENT_SET_NO = 999
REV_AT_EPOCH   = 7256
BSTAR          = .61806504E-4
MEAN_MOTION_DOT = .565E-5
MEAN_MOTION_DDOT = 0

CCSDS_OMM_VERS = 2.0
CREATION_DATE  = 
ORIGINATOR     = 

OBJECT_NAME    = COSMOS 1833
OBJECT_ID      = 1987-027A
CENTER_NAME    = EARTH
REF_FRAME      = TEME
TIME_SYSTEM    = UTC
MEAN_ELEMENT_THEORY = SGP/SGP4

EPOCH          = 2025-11-24T21:04:52.832928
MEAN_MOTION    = 14.13017951
ECCENTRICITY   = .00217737
INCLINATION    = 70.9127
RA_OF_ASC_NODE = 186.3247
ARG_OF_PERICENTER = 356.9157
MEAN_ANOMALY   = 3.1826

EPHEMERIS_TYPE = 0
CLASSIFICATION_TYPE = U
NORAD_CAT_ID   = 17589
ELEMENT_SET_NO = 999
REV_AT_EPOCH   = 99550
BSTAR          = -.15283032E-4
MEAN_MOTION_DOT = -.77E-6
MEAN_MOTION_DDOT = 0

CCSDS_OMM_VERS = 2.0
CREATION_DATE  = 
ORIGINATOR     = 

OBJECT_NAME    = SL-16 R/B
OBJECT_ID      = 1987-027B
CENTER_NAME    = EARTH
REF_FRAME      = TEME
TIME_SYSTEM    = UTC
MEAN_ELEMENT_THEORY = SGP/SGP4

EPOCH          = 2025-11-24T20:58:17.855328
MEAN_MOTION    = 14.17148200
ECCENTRICITY   = .00072724
INCLINATION    = 71.0002
RA_OF_ASC_NODE = 137.3641
ARG_OF_PERICENTER = 278.0340
MEAN_ANOMALY   = 81.9958

EPHEMERIS_TYPE = 0
CLASSIFICATION_TYPE = U
NORAD_CAT_ID   = 17590
ELEMENT_SET_NO = 999
REV_AT_EPOCH   = 49
BSTAR          = .13404392E-3
MEAN_MOTION_DOT = .222E-5
MEAN_MOTION_DDOT = 0

CCSDS_OMM_VERS = 2.0
CREATION_DATE  = 
ORIGINATOR     = 

OBJECT_NAME    = SL-14 R/B
OBJECT_ID      = 1987-038B
CENTER_NAME    = EARTH
REF_FRAME      = TEME
TIME_SYSTEM    = UTC
MEAN_ELEMENT_THEORY = SGP/SGP4

EPOCH          = 2025-11-24T16:11:16.467360
MEAN_MOTION    = 14.85236289
ECCENTRICITY   = .00201502
INCLINATION    = 82.5032
RA_OF_ASC_NODE = 35.7141
ARG_OF_PERICENTER = 148.0802
MEAN_ANOMALY   = 212.1640

EPHEMERIS_TYPE = 0
CLASSIFICATION_TYPE = U
NORAD_CAT_ID   = 17912
ELEMENT_SET_NO = 999
REV_AT_EPOCH   = 6364
BSTAR          = .64698739E-4
MEAN_MOTION_DOT = .581E-5
MEAN_MOTION_DDOT = 0

CCSDS_OMM_VERS = 2.0
CREATION_DATE  = 
ORIGINATOR     = 

OBJECT_NAME    = COSMOS 1844
OBJECT_ID      = 1987-041A
CENTER_NAME    = EARTH
REF_FRAME      = TEME
TIME_SYSTEM    = UTC
MEAN_ELEMENT_THEORY = SGP/SGP4

EPOCH          = 2025-11-24T19:29:41.354880
MEAN_MOTION    = 14.14528304
ECCENTRICITY   = .00308852
INCLINATION    = 70.8995
RA_OF_ASC_NODE = 255.3812
ARG_OF_PERICENTER = 184.8786
MEAN_ANOMALY   = 175.2040

EPHEMERIS_TYPE = 0
CLASSIFICATION_TYPE = U
NORAD_CAT_ID   = 17973
ELEMENT_SET_NO = 999
REV_AT_EPOCH   = 98875
BSTAR          = .42899693E-4
MEAN_MOTION_DOT = .34E-6
MEAN_MOTION_DDOT = 0

CCSDS_OMM_VERS = 2.0
CREATION_DATE  = 
ORIGINATOR     = 

OBJECT_NAME    = SL-14 R/B
OBJECT_ID      = 1987-055B
CENTER_NAME    = EARTH
REF_FRAME      = TEME
TIME_SYSTEM    = UTC
MEAN_ELEMENT_THEORY = SGP/SGP4

EPOCH          = 2025-11-24T19:18:09.888768
MEAN_MOTION    = 14.85492991
ECCENTRICITY   = .00207419
INCLINATION    = 82.4989
RA_OF_ASC_NODE = 87.8895
ARG_OF_PERICENTER = 4.6026
MEAN_ANOMALY   = 355.5376

EPHEMERIS_TYPE = 0
CLASSIFICATION_TYPE = U
NORAD_CAT_ID   = 18153
ELEMENT_SET_NO = 999
REV_AT_EPOCH   = 5436
BSTAR          = .74649874E-4
MEAN_MOTION_DOT = .67E-5
MEAN_MOTION_DDOT = 0

CCSDS_OMM_VERS = 2.0
CREATION_DATE  = 
ORIGINATOR     = 

OBJECT_NAME    = COSMOS 1867
OBJECT_ID      = 1987-060A
CENTER_NAME    = EARTH
REF_FRAME      = TEME
TIME_SYSTEM    = UTC
MEAN_ELEMENT_THEORY = SGP/SGP4

EPOCH          = 2025-11-24T23:56:25.750464
MEAN_MOTION    = 14.31482047
ECCENTRICITY   = .00136355
INCLINATION    = 65.0102
RA_OF_ASC_NODE = 239.8864
ARG_OF_PERICENTER = 269.2668
MEAN_ANOMALY   = 90.6854

EPHEMERIS_TYPE = 0
CLASSIFICATION_TYPE = U
NORAD_CAT_ID   = 18187
ELEMENT_SET_NO = 999
REV_AT_EPOCH   = 495
BSTAR          = .32707273E-4
MEAN_MOTION_DOT = -.13E-6
MEAN_MOTION_DDOT = 0

CCSDS_OMM_VERS = 2.0
CREATION_DATE  = 
ORIGINATOR     = 

OBJECT_NAME    = COSMOS 1892
OBJECT_ID      = 1987-088A
CENTER_NAME    = EARTH
REF_FRAME      = TEME
TIME_SYSTEM    = UTC
MEAN_ELEMENT_THEORY = SGP/SGP4

EPOCH          = 2025-11-25T05:33:18.347904
MEAN_MOTION    = 16.13202004
ECCENTRICITY   = .0005564
INCLINATION    = 82.4632
RA_OF_ASC_NODE = 63.4200
ARG_OF_PERICENTER = 269.7044
MEAN_ANOMALY   = 90.3603

EPHEMERIS_TYPE = 0
CLASSIFICATION_TYPE = U
NORAD_CAT_ID   = 18421
ELEMENT_SET_NO = 999
REV_AT_EPOCH   = 8851
BSTAR          = .75267E-3
MEAN_MOTION_DOT = .859773E-2
MEAN_MOTION_DDOT = .4446E-3

